start=new Date('2022-08-24T00:00:00.000Z').valueOf();
sats=[{"SEMIMAJOR_AXIS":"6925.386","MEAN_MOTION_DDOT":"0.0000000000000","BSTAR":"-0.00002959300000","SITE":"AFETR","INCLINATION":"53.0574","TIME_SYSTEM":"UTC","APOAPSIS":"548.280","PERIAPSIS":"546.221","REF_FRAME":"TEME","CENTER_NAME":"EARTH","MEAN_ELEMENT_THEORY":"SGP4","ELEMENT_SET_NO":"999","RA_OF_ASC_NODE":"10.7014","OBJECT_ID":"2020-074P","OBJECT_NAME":"STARLINK-1921","CLASSIFICATION_TYPE":"U","COUNTRY_CODE":"US","MEAN_MOTION":"15.06387939","EPHEMERIS_TYPE":"0","MEAN_MOTION_DOT":"-0.00000722","TLE_LINE2":"2 46752  53.0574  10.7014 0001486  77.9060 282.2095 15.06387939101631","MEAN_ANOMALY":"282.2095","FILE":"3545624","OBJECT_TYPE":"PAYLOAD","DECAY_DATE":null,"REV_AT_EPOCH":"10163","EPOCH":"2022-08-23T16:01:52.176000","NORAD_CAT_ID":"46752","ECCENTRICITY":"0.00014860","PERIOD":"95.593","GP_ID":"210859212","ARG_OF_PERICENTER":"77.9060","RCS_SIZE":"LARGE","LAUNCH_DATE":"2020-10-24","TLE_LINE1":"1 46752U 20074P   22235.66796500 -.00000722  00000-0 -29593-4 0  9995"},{"APOAPSIS":"548.106","PERIAPSIS":"546.305","REF_FRAME":"TEME","CENTER_NAME":"EARTH","MEAN_ELEMENT_THEORY":"SGP4","ELEMENT_SET_NO":"999","RA_OF_ASC_NODE":"10.2627","OBJECT_NAME":"STARLINK-1922","OBJECT_ID":"2020-074Q","CLASSIFICATION_TYPE":"U","SEMIMAJOR_AXIS":"6925.340","MEAN_MOTION_DDOT":"0.0000000000000","BSTAR":"0.00016201000000","SITE":"AFETR","INCLINATION":"53.0572","TIME_SYSTEM":"UTC","DECAY_DATE":null,"NORAD_CAT_ID":"46753","EPOCH":"2022-08-23T18:25:10.396416","REV_AT_EPOCH":"10165","ECCENTRICITY":"0.00013000","PERIOD":"95.592","GP_ID":"210860465","ARG_OF_PERICENTER":"78.0759","RCS_SIZE":"LARGE","LAUNCH_DATE":"2020-10-24","TLE_LINE1":"1 46753U 20074Q   22235.76748144  .00002133  00000-0  16201-3 0  9995","COUNTRY_CODE":"US","MEAN_MOTION":"15.06402670","EPHEMERIS_TYPE":"0","MEAN_MOTION_DOT":"0.00002133","MEAN_ANOMALY":"282.0376","TLE_LINE2":"2 46753  53.0572  10.2627 0001300  78.0759 282.0376 15.06402670101659","OBJECT_TYPE":"PAYLOAD","FILE":"3545624"},{"ELEMENT_SET_NO":"999","MEAN_ELEMENT_THEORY":"SGP4","CENTER_NAME":"EARTH","REF_FRAME":"TEME","PERIAPSIS":"546.274","APOAPSIS":"548.183","CLASSIFICATION_TYPE":"U","OBJECT_NAME":"STARLINK-1923","OBJECT_ID":"2020-074R","RA_OF_ASC_NODE":"10.5179","INCLINATION":"53.0563","SITE":"AFETR","BSTAR":"0.00004811600000","MEAN_MOTION_DDOT":"0.0000000000000","SEMIMAJOR_AXIS":"6925.363","TIME_SYSTEM":"UTC","PERIOD":"95.592","ECCENTRICITY":"0.00013780","EPOCH":"2022-08-23T17:00:14.632416","NORAD_CAT_ID":"46754","REV_AT_EPOCH":"10164","DECAY_DATE":null,"TLE_LINE1":"1 46754U 20074R   22235.70850269  .00000435  00000-0  48116-4 0  9996","LAUNCH_DATE":"2020-10-24","RCS_SIZE":"LARGE","ARG_OF_PERICENTER":"107.2302","GP_ID":"210860708","COUNTRY_CODE":"US","FILE":"3545624","OBJECT_TYPE":"PAYLOAD","MEAN_ANOMALY":"252.8837","TLE_LINE2":"2 46754  53.0563  10.5179 0001378 107.2302 252.8837 15.06395204101649","MEAN_MOTION_DOT":"0.00000435","EPHEMERIS_TYPE":"0","MEAN_MOTION":"15.06395204"},{"COUNTRY_CODE":"US","EPHEMERIS_TYPE":"0","MEAN_MOTION":"15.06395076","MEAN_ANOMALY":"302.6466","TLE_LINE2":"2 46755  53.0562  15.7948 0001462  57.4664 302.6466 15.06395076101561","MEAN_MOTION_DOT":"0.00000488","FILE":"3545624","OBJECT_TYPE":"PAYLOAD","DECAY_DATE":null,"REV_AT_EPOCH":"10156","EPOCH":"2022-08-23T15:32:00.600288","NORAD_CAT_ID":"46755","ECCENTRICITY":"0.00014620","PERIOD":"95.592","GP_ID":"210859464","ARG_OF_PERICENTER":"57.4664","RCS_SIZE":"LARGE","TLE_LINE1":"1 46755U 20074S   22235.64722917  .00000488  00000-0  51660-4 0  9994","LAUNCH_DATE":"2020-10-24","SEMIMAJOR_AXIS":"6925.364","BSTAR":"0.00005166000000","MEAN_MOTION_DDOT":"0.0000000000000","SITE":"AFETR","INCLINATION":"53.0562","TIME_SYSTEM":"UTC","REF_FRAME":"TEME","APOAPSIS":"548.241","PERIAPSIS":"546.216","MEAN_ELEMENT_THEORY":"SGP4","CENTER_NAME":"EARTH","ELEMENT_SET_NO":"999","OBJECT_NAME":"STARLINK-1924","OBJECT_ID":"2020-074S","RA_OF_ASC_NODE":"15.7948","CLASSIFICATION_TYPE":"U"},{"MEAN_ELEMENT_THEORY":"SGP4","CENTER_NAME":"EARTH","ELEMENT_SET_NO":"999","REF_FRAME":"TEME","APOAPSIS":"548.106","PERIAPSIS":"546.339","CLASSIFICATION_TYPE":"U","OBJECT_ID":"2020-074T","OBJECT_NAME":"STARLINK-1925","RA_OF_ASC_NODE":"17.2530","SITE":"AFETR","INCLINATION":"53.0555","SEMIMAJOR_AXIS":"6925.357","BSTAR":"0.00005324500000","MEAN_MOTION_DDOT":"0.0000000000000","TIME_SYSTEM":"UTC","ECCENTRICITY":"0.00012760","PERIOD":"95.592","DECAY_DATE":null,"EPOCH":"2022-08-23T09:52:22.598688","REV_AT_EPOCH":"10152","NORAD_CAT_ID":"46756","RCS_SIZE":"LARGE","TLE_LINE1":"1 46756U 20074T   22235.41137267  .00000512  00000-0  53245-4 0  9997","LAUNCH_DATE":"2020-10-24","GP_ID":"210822701","ARG_OF_PERICENTER":"78.1586","COUNTRY_CODE":"US","TLE_LINE2":"2 46756  53.0555  17.2530 0001276  78.1586 281.9546 15.06397134101525","MEAN_ANOMALY":"281.9546","MEAN_MOTION_DOT":"0.00000512","OBJECT_TYPE":"PAYLOAD","FILE":"3545070","EPHEMERIS_TYPE":"0","MEAN_MOTION":"15.06397134"},{"TIME_SYSTEM":"UTC","SEMIMAJOR_AXIS":"6925.354","BSTAR":"0.00004977800000","MEAN_MOTION_DDOT":"0.0000000000000","SITE":"AFETR","INCLINATION":"53.0555","OBJECT_ID":"2020-074U","OBJECT_NAME":"STARLINK-1926","RA_OF_ASC_NODE":"17.0291","CLASSIFICATION_TYPE":"U","REF_FRAME":"TEME","APOAPSIS":"548.325","PERIAPSIS":"546.113","MEAN_ELEMENT_THEORY":"SGP4","CENTER_NAME":"EARTH","ELEMENT_SET_NO":"999","EPHEMERIS_TYPE":"0","MEAN_MOTION":"15.06398313","MEAN_ANOMALY":"292.3861","TLE_LINE2":"2 46757  53.0555  17.0291 0001597  67.7297 292.3861 15.06398313101523","MEAN_MOTION_DOT":"0.00000460","FILE":"3545070","OBJECT_TYPE":"PAYLOAD","COUNTRY_CODE":"US","ARG_OF_PERICENTER":"67.7297","GP_ID":"210822950","RCS_SIZE":"LARGE","TLE_LINE1":"1 46757U 20074U   22235.42609812  .00000460  00000-0  49778-4 0  9997","LAUNCH_DATE":"2020-10-24","DECAY_DATE":null,"NORAD_CAT_ID":"46757","EPOCH":"2022-08-23T10:13:34.877568","REV_AT_EPOCH":"10152","ECCENTRICITY":"0.00015970","PERIOD":"95.592"},{"COUNTRY_CODE":"US","OBJECT_TYPE":"PAYLOAD","FILE":"3545624","MEAN_ANOMALY":"288.9374","TLE_LINE2":"2 46758  53.0546  16.1698 0001525  71.1781 288.9374 15.06394028101555","MEAN_MOTION_DOT":"-0.00002911","EPHEMERIS_TYPE":"0","MEAN_MOTION":"15.06394028","PERIOD":"95.593","ECCENTRICITY":"0.00015250","REV_AT_EPOCH":"10155","NORAD_CAT_ID":"46758","EPOCH":"2022-08-23T13:29:54.835008","DECAY_DATE":null,"TLE_LINE1":"1 46758U 20074V   22235.56244022 -.00002911  00000-0 -17662-3 0  9992","LAUNCH_DATE":"2020-10-24","RCS_SIZE":"LARGE","GP_ID":"210860209","ARG_OF_PERICENTER":"71.1781","INCLINATION":"53.0546","SITE":"AFETR","BSTAR":"-0.00017662000000","MEAN_MOTION_DDOT":"0.0000000000000","SEMIMAJOR_AXIS":"6925.367","TIME_SYSTEM":"UTC","ELEMENT_SET_NO":"999","MEAN_ELEMENT_THEORY":"SGP4","CENTER_NAME":"EARTH","REF_FRAME":"TEME","PERIAPSIS":"546.176","APOAPSIS":"548.288","CLASSIFICATION_TYPE":"U","OBJECT_NAME":"STARLINK-1928","OBJECT_ID":"2020-074V","RA_OF_ASC_NODE":"16.1698"},{"EPHEMERIS_TYPE":"0","MEAN_MOTION":"15.06397523","MEAN_ANOMALY":"290.4424","TLE_LINE2":"2 46759  53.0544  25.6205 0001547  69.6732 290.4424 15.06397523101428","MEAN_MOTION_DOT":"-0.00000453","FILE":"3545624","OBJECT_TYPE":"PAYLOAD","COUNTRY_CODE":"US","ARG_OF_PERICENTER":"69.6732","GP_ID":"210858965","RCS_SIZE":"LARGE","TLE_LINE1":"1 46759U 20074W   22235.69053754 -.00000453  00000-0 -11512-4 0  9995","LAUNCH_DATE":"2020-10-24","DECAY_DATE":null,"NORAD_CAT_ID":"46759","EPOCH":"2022-08-23T16:34:22.443456","REV_AT_EPOCH":"10142","ECCENTRICITY":"0.00015470","PERIOD":"95.592","TIME_SYSTEM":"UTC","SEMIMAJOR_AXIS":"6925.356","BSTAR":"-0.00001151200000","MEAN_MOTION_DDOT":"0.0000000000000","SITE":"AFETR","INCLINATION":"53.0544","OBJECT_ID":"2020-074W","OBJECT_NAME":"STARLINK-1833","RA_OF_ASC_NODE":"25.6205","CLASSIFICATION_TYPE":"U","REF_FRAME":"TEME","APOAPSIS":"548.293","PERIAPSIS":"546.150","MEAN_ELEMENT_THEORY":"SGP4","CENTER_NAME":"EARTH","ELEMENT_SET_NO":"999"},{"FILE":"3545624","OBJECT_TYPE":"PAYLOAD","MEAN_ANOMALY":"273.4163","TLE_LINE2":"2 46760  53.0561  25.2722 0001464  86.6994 273.4163 15.06390115101449","MEAN_MOTION_DOT":"0.00000282","EPHEMERIS_TYPE":"0","MEAN_MOTION":"15.06390115","COUNTRY_CODE":"US","TLE_LINE1":"1 46760U 20074X   22235.76795149  .00000282  00000-0  37824-4 0  9998","LAUNCH_DATE":"2020-10-24","RCS_SIZE":"LARGE","GP_ID":"210859213","ARG_OF_PERICENTER":"86.6994","PERIOD":"95.593","ECCENTRICITY":"0.00014640","EPOCH":"2022-08-23T18:25:51.008736","NORAD_CAT_ID":"46760","REV_AT_EPOCH":"10144","DECAY_DATE":null,"TIME_SYSTEM":"UTC","INCLINATION":"53.0561","SITE":"AFETR","BSTAR":"0.00003782400000","MEAN_MOTION_DDOT":"0.0000000000000","SEMIMAJOR_AXIS":"6925.379","CLASSIFICATION_TYPE":"U","OBJECT_NAME":"STARLINK-1896","OBJECT_ID":"2020-074X","RA_OF_ASC_NODE":"25.2722","ELEMENT_SET_NO":"999","MEAN_ELEMENT_THEORY":"SGP4","CENTER_NAME":"EARTH","REF_FRAME":"TEME","APOAPSIS":"548.258","PERIAPSIS":"546.230"},{"RCS_SIZE":"LARGE","LAUNCH_DATE":"2020-10-24","TLE_LINE1":"1 46763U 20074AA  22235.56350042  .00096517  00000-0  20847-2 0  9999","GP_ID":"210860466","ARG_OF_PERICENTER":"44.6468","ECCENTRICITY":"0.00017080","PERIOD":"93.279","DECAY_DATE":null,"REV_AT_EPOCH":"10219","NORAD_CAT_ID":"46763","EPOCH":"2022-08-23T13:31:26.436288","MEAN_MOTION_DOT":"0.00096517","TLE_LINE2":"2 46763  53.0543 330.9917 0001708  44.6468 315.4675 15.43755028102192","MEAN_ANOMALY":"315.4675","FILE":"3545624","OBJECT_TYPE":"PAYLOAD","MEAN_MOTION":"15.43755028","EPHEMERIS_TYPE":"0","COUNTRY_CODE":"US","CLASSIFICATION_TYPE":"U","RA_OF_ASC_NODE":"330.9917","OBJECT_NAME":"STARLINK-1902","OBJECT_ID":"2020-074AA","CENTER_NAME":"EARTH","MEAN_ELEMENT_THEORY":"SGP4","ELEMENT_SET_NO":"999","APOAPSIS":"436.204","PERIAPSIS":"433.877","REF_FRAME":"TEME","TIME_SYSTEM":"UTC","SITE":"AFETR","INCLINATION":"53.0543","SEMIMAJOR_AXIS":"6813.176","MEAN_MOTION_DDOT":"0.0000000000000","BSTAR":"0.00208470000000"}];
